[{"OBJECT_NAME":"SVYATOBOR 1 (RS60S)","OBJECT_ID":"2023-091X","EPOCH":"2026-03-15T06:40:11.628768","MEAN_MOTION":15.24944558,"ECCENTRICITY":0.00109633,"INCLINATION":97.5202,"RA_OF_ASC_NODE":137.6446,"ARG_OF_PERICENTER":68.1404,"MEAN_ANOMALY":292.0998,"EPHEMERIS_TYPE":0,"CLASSIFICATION_TYPE":"U","NORAD_CAT_ID":57187,"ELEMENT_SET_NO":999,"REV_AT_EPOCH":14999,"BSTAR":0.00045526501,"MEAN_MOTION_DOT":0.00011294,"MEAN_MOTION_DDOT":0},{"OBJECT_NAME":"HORS 1","OBJECT_ID":"2023-091Y","EPOCH":"2026-03-15T08:01:48.876672","MEAN_MOTION":15.2501842,"ECCENTRICITY":0.00105022,"INCLINATION":97.5182,"RA_OF_ASC_NODE":137.4776,"ARG_OF_PERICENTER":68.2901,"MEAN_ANOMALY":291.9453,"EPHEMERIS_TYPE":0,"CLASSIFICATION_TYPE":"U","NORAD_CAT_ID":57188,"ELEMENT_SET_NO":999,"REV_AT_EPOCH":15000,"BSTAR":0.00044711687,"MEAN_MOTION_DOT":0.00011113,"MEAN_MOTION_DDOT":0},{"OBJECT_NAME":"VIZARD-METEO (RS38S)","OBJECT_ID":"2023-091Z","EPOCH":"2026-03-15T07:29:17.676960","MEAN_MOTION":15.32983902,"ECCENTRICITY":0.000842,"INCLINATION":97.5192,"RA_OF_ASC_NODE":142.0933,"ARG_OF_PERICENTER":55.3241,"MEAN_ANOMALY":304.8794,"EPHEMERIS_TYPE":0,"CLASSIFICATION_TYPE":"U","NORAD_CAT_ID":57189,"ELEMENT_SET_NO":999,"REV_AT_EPOCH":15029,"BSTAR":0.0005811633,"MEAN_MOTION_DOT":0.00018479,"MEAN_MOTION_DDOT":0},{"OBJECT_NAME":"NANOZOND 1 (RS49S)","OBJECT_ID":"2023-091AA","EPOCH":"2026-03-15T06:27:32.807808","MEAN_MOTION":15.77351754,"ECCENTRICITY":0.00022823,"INCLINATION":97.5058,"RA_OF_ASC_NODE":154.9745,"ARG_OF_PERICENTER":289.4604,"MEAN_ANOMALY":70.6415,"EPHEMERIS_TYPE":0,"CLASSIFICATION_TYPE":"U","NORAD_CAT_ID":57190,"ELEMENT_SET_NO":999,"REV_AT_EPOCH":15115,"BSTAR":0.001384727,"MEAN_MOTION_DOT":0.00233163,"MEAN_MOTION_DDOT":0},{"OBJECT_NAME":"SITRO-AIS 6 (CHIRKIN)","OBJECT_ID":"2023-091AC","EPOCH":"2026-03-15T07:02:18.068352","MEAN_MOTION":15.24502304,"ECCENTRICITY":0.00140898,"INCLINATION":97.518,"RA_OF_ASC_NODE":136.9812,"ARG_OF_PERICENTER":78.8942,"MEAN_ANOMALY":281.3879,"EPHEMERIS_TYPE":0,"CLASSIFICATION_TYPE":"U","NORAD_CAT_ID":57192,"ELEMENT_SET_NO":999,"REV_AT_EPOCH":14997,"BSTAR":0.00032418463,"MEAN_MOTION_DOT":7.92e-5,"MEAN_MOTION_DDOT":0},{"OBJECT_NAME":"SITRO-AIS 8 (ANOKHIN)","OBJECT_ID":"2023-091AD","EPOCH":"2026-03-15T05:21:36.686592","MEAN_MOTION":15.29547066,"ECCENTRICITY":0.00123178,"INCLINATION":97.5167,"RA_OF_ASC_NODE":138.5736,"ARG_OF_PERICENTER":75.6668,"MEAN_ANOMALY":284.5939,"EPHEMERIS_TYPE":0,"CLASSIFICATION_TYPE":"U","NORAD_CAT_ID":57193,"ELEMENT_SET_NO":999,"REV_AT_EPOCH":15007,"BSTAR":0.00059206529,"MEAN_MOTION_DOT":0.00016936,"MEAN_MOTION_DDOT":0},{"OBJECT_NAME":"SITRO-AIS 7 (FARTUSHNIY)","OBJECT_ID":"2023-091AE","EPOCH":"2026-03-15T06:41:22.502688","MEAN_MOTION":15.24245298,"ECCENTRICITY":0.00139824,"INCLINATION":97.5179,"RA_OF_ASC_NODE":136.8355,"ARG_OF_PERICENTER":79.7842,"MEAN_ANOMALY":280.4971,"EPHEMERIS_TYPE":0,"CLASSIFICATION_TYPE":"U","NORAD_CAT_ID":57194,"ELEMENT_SET_NO":999,"REV_AT_EPOCH":14996,"BSTAR":0.00030863549,"MEAN_MOTION_DOT":7.478e-5,"MEAN_MOTION_DDOT":0},{"OBJECT_NAME":"AVION KALUGA 650","OBJECT_ID":"2023-091AF","EPOCH":"2026-03-15T06:38:40.691040","MEAN_MOTION":15.19300498,"ECCENTRICITY":0.00121486,"INCLINATION":97.521,"RA_OF_ASC_NODE":134.254,"ARG_OF_PERICENTER":80.7928,"MEAN_ANOMALY":279.468,"EPHEMERIS_TYPE":0,"CLASSIFICATION_TYPE":"U","NORAD_CAT_ID":57195,"ELEMENT_SET_NO":999,"REV_AT_EPOCH":14976,"BSTAR":0.00034110746,"MEAN_MOTION_DOT":7.146e-5,"MEAN_MOTION_DDOT":0},{"OBJECT_NAME":"HORS 2","OBJECT_ID":"2023-091AG","EPOCH":"2026-03-15T06:57:22.555296","MEAN_MOTION":15.29455826,"ECCENTRICITY":0.00095573,"INCLINATION":97.5195,"RA_OF_ASC_NODE":140.1694,"ARG_OF_PERICENTER":62.9537,"MEAN_ANOMALY":297.2677,"EPHEMERIS_TYPE":0,"CLASSIFICATION_TYPE":"U","NORAD_CAT_ID":57196,"ELEMENT_SET_NO":999,"REV_AT_EPOCH":15016,"BSTAR":0.00056114652,"MEAN_MOTION_DOT":0.00015986,"MEAN_MOTION_DDOT":0},{"OBJECT_NAME":"A-SEANSAT-PG1","OBJECT_ID":"2023-091AH","EPOCH":"2026-03-15T06:56:54.000960","MEAN_MOTION":15.33657263,"ECCENTRICITY":0.00085998,"INCLINATION":97.5183,"RA_OF_ASC_NODE":142.0629,"ARG_OF_PERICENTER":61.8391,"MEAN_ANOMALY":298.3719,"EPHEMERIS_TYPE":0,"CLASSIFICATION_TYPE":"U","NORAD_CAT_ID":57197,"ELEMENT_SET_NO":999,"REV_AT_EPOCH":15030,"BSTAR":0.00062218044,"MEAN_MOTION_DOT":0.00020219,"MEAN_MOTION_DDOT":0},{"OBJECT_NAME":"SITRO-AIS 10 (BURDAEV)","OBJECT_ID":"2023-091AK","EPOCH":"2026-03-15T07:03:32.332608","MEAN_MOTION":15.35018116,"ECCENTRICITY":0.00077895,"INCLINATION":97.518,"RA_OF_ASC_NODE":142.8104,"ARG_OF_PERICENTER":57.9647,"MEAN_ANOMALY":302.2352,"EPHEMERIS_TYPE":0,"CLASSIFICATION_TYPE":"U","NORAD_CAT_ID":57199,"ELEMENT_SET_NO":999,"REV_AT_EPOCH":15034,"BSTAR":0.00065899592,"MEAN_MOTION_DOT":0.00022366,"MEAN_MOTION_DDOT":0},{"OBJECT_NAME":"SITRO-AIS 9 (SHCHUKIN)","OBJECT_ID":"2023-091AM","EPOCH":"2026-03-15T07:02:57.789024","MEAN_MOTION":15.34635519,"ECCENTRICITY":0.00080253,"INCLINATION":97.5179,"RA_OF_ASC_NODE":142.606,"ARG_OF_PERICENTER":57.5681,"MEAN_ANOMALY":302.6337,"EPHEMERIS_TYPE":0,"CLASSIFICATION_TYPE":"U","NORAD_CAT_ID":57201,"ELEMENT_SET_NO":999,"REV_AT_EPOCH":15033,"BSTAR":0.00064037058,"MEAN_MOTION_DOT":0.00021467,"MEAN_MOTION_DDOT":0},{"OBJECT_NAME":"UTMN 2 (RS27S)","OBJECT_ID":"2023-091AP","EPOCH":"2026-03-15T06:19:38.476128","MEAN_MOTION":15.29670059,"ECCENTRICITY":0.00093904,"INCLINATION":97.5193,"RA_OF_ASC_NODE":140.3085,"ARG_OF_PERICENTER":59.7262,"MEAN_ANOMALY":300.4906,"EPHEMERIS_TYPE":0,"CLASSIFICATION_TYPE":"U","NORAD_CAT_ID":57203,"ELEMENT_SET_NO":999,"REV_AT_EPOCH":15017,"BSTAR":0.00060618344,"MEAN_MOTION_DOT":0.00017392,"MEAN_MOTION_DDOT":0},{"OBJECT_NAME":"SITRO-AIS 12 (SMIRENNIY)","OBJECT_ID":"2023-091AQ","EPOCH":"2026-03-15T07:13:38.364672","MEAN_MOTION":15.3488396,"ECCENTRICITY":0.00075856,"INCLINATION":97.519,"RA_OF_ASC_NODE":143.0252,"ARG_OF_PERICENTER":53.0027,"MEAN_ANOMALY":307.1909,"EPHEMERIS_TYPE":0,"CLASSIFICATION_TYPE":"U","NORAD_CAT_ID":57204,"ELEMENT_SET_NO":999,"REV_AT_EPOCH":15035,"BSTAR":0.00064493489,"MEAN_MOTION_DOT":0.00021791,"MEAN_MOTION_DDOT":0},{"OBJECT_NAME":"SITRO-AIS 11 (SHEFFER)","OBJECT_ID":"2023-091AU","EPOCH":"2026-03-15T06:33:12.432384","MEAN_MOTION":15.35232773,"ECCENTRICITY":0.00074522,"INCLINATION":97.5188,"RA_OF_ASC_NODE":143.1895,"ARG_OF_PERICENTER":52.7225,"MEAN_ANOMALY":307.4697,"EPHEMERIS_TYPE":0,"CLASSIFICATION_TYPE":"U","NORAD_CAT_ID":57208,"ELEMENT_SET_NO":999,"REV_AT_EPOCH":15036,"BSTAR":0.0007204494,"MEAN_MOTION_DOT":0.00024632,"MEAN_MOTION_DDOT":0},{"OBJECT_NAME":"H2SAT (HEINRICH HERTZ)","OBJECT_ID":"2023-093A","EPOCH":"2026-03-13T23:04:38.754624","MEAN_MOTION":1.00276337,"ECCENTRICITY":0.00013318,"INCLINATION":0.0331,"RA_OF_ASC_NODE":282.4636,"ARG_OF_PERICENTER":186.4971,"MEAN_ANOMALY":49.4633,"EPHEMERIS_TYPE":0,"CLASSIFICATION_TYPE":"U","NORAD_CAT_ID":57213,"ELEMENT_SET_NO":999,"REV_AT_EPOCH":996,"BSTAR":0,"MEAN_MOTION_DOT":2.0e-8,"MEAN_MOTION_DDOT":0}]
